#dP2021 11 29  0  0  0.00000000      97 __u+U IGS14 FIT  IAC
## 2186  86400.00000000   900.00000000 59547 0.0000000000000
+  123   C01C02C04C05C06C07C08C09C10C11C12C13C14C16C19C20C21
+        C22C23C24C25C26C27C28C29C30C32C33C34C35C36C37C38C39
+        C40C41C42C43C44C45C46C59C60E01E02E03E04E05E07E08E09
+        E11E12E13E14E15E18E19E21E24E25E26E27E30E31E33E36G01
+        G02G03G04G05G06G07G08G09G10G12G13G14G15G16G17G18G19
+        G20G21G22G23G24G25G26G27G28G29G30G31G32J01J02J03J07
+        R01R02R03R04R05R07R08R09R11R12R13R14R15R16R17R18R19
+        R20R21R22R24  0  0  0  0  0  0  0  0  0  0  0  0  0
++        13 13 13 13  9  9 11  8  8  8  8 12  8  9  7  7  7
++         7  7  7  6  7  7  7  7  7  7  7  7  7  6  7  7  7
++         7  7  7  7  7  7  7 14 13  4  4  4  4  4  4  4  4
++         4  4  4  4  4  4  4  4  4  4  4  4  4  4  4  4  3
++         3  3  3  3  3  3  3  3  3  3  3  3  3  3  4  3  3
++         3  3  4  3  3  3  3  3  4  3  3  4  4  8  8  8 14
++         7  5  5  5  5  6  6  6  8  5  6  5  5  7  6  5  7
++         7  5  7  6  0  0  0  0  0  0  0  0  0  0  0  0  0
%c M  cc GPS ccc cccc cccc cccc cccc ccccc ccccc ccccc ccccc
%c cc cc ccc ccc cccc cccc cccc cccc ccccc ccccc ccccc ccccc
%f  1.2500000  1.025000000  0.00000000000  0.000000000000000
%f  0.0000000  0.000000000  0.00000000000  0.000000000000000
%i    0    0    0    0      0      0      0      0         0
%i    0    0    0    0      0      0      0      0         0
/* INFORMATION & ANALYSIS CENTER (IAC)            FINAL DATA
/* S/V CLOCKS ARE ALIGNED TO GNSS TIME                      
/* G:C1WC2W R:C1PC2P E:C1XC5X C:C2IC6I J:C1CC2S             
/* PCV:IGS14_2178 OL/AL:FES2004  NONE     YN ORB:CoN CLK:CoN
*  2021 11 29 22 45  0.00000000
PC01 -34320.644416  24445.449047    193.835389   -396.009160
PC02   4310.317545  41966.966690    840.769680    851.482058
PC04 -39618.481251  14340.369768    144.709547    268.649625
PC05  21883.711390  36046.070661    866.403940    317.905557
PC06 -16402.861445  36646.602962 -13208.190190    561.387978
PC07  -2743.997769  35095.688763 -23126.254408    179.625422
PC08  -8604.138130  20009.926904  36102.151727    -64.323486
PC09 -12294.179675  35594.734157 -19115.195457   -307.934658
PC10   4684.954216  37899.177852 -17125.330410    135.655296
PC11  19844.873615 -19161.735690   4431.699834   -362.905244
PC12  19880.509336  -4409.837494  19134.119863   -421.865043
PC13  -2368.863583  22371.607145  35776.572041   -193.243442
PC14  10835.103060 -13613.798962 -21813.967783    515.092711
PC16 -20401.426053  36123.402913  -8068.147919      6.772516
PC19  -4065.729394  21635.527305  17160.078783    928.902501
PC20 -14976.098144   5190.322864  22973.677499   -791.959583
PC21  17518.522177  15358.990478 -15342.123294   -941.522069
PC22   9587.044016  26171.348084   1134.658771   -970.928970
PC23  -9649.073148 -16325.075616  20472.900752   -963.491107
PC24  26229.374269  -2655.784441   9192.592362   -956.040986
PC25  10658.314114 -14171.179676  21547.491755   -817.302834
PC26  25735.240395   8316.742483  -6970.905420    814.770630
PC27 -15856.947073  -5077.589671 -22411.557333    637.398210
PC28   -903.510952 -20057.194105 -19378.513579      3.150806
PC29 -13727.680623  23798.203898   4889.795718    481.014127
PC30 -21051.995998  13086.412458 -12838.287471    487.530907
PC32 -17643.360456 -15289.680634  15295.620118   -958.805183
PC33   4014.282241 -21620.873867 -17188.689368   -965.943576
PC34  21034.439090 -13772.241087  12082.510444   -525.730578
PC35   1170.394702  20367.345320  19051.957084     23.619551
PC36 -11432.472434  13745.304343 -21400.965606   -817.659013
PC37 -24997.364043  -9503.003513   7938.204892   -901.355133
PC38 -18835.850087  19833.478857  32054.824643    193.067209
PC39 -21498.745040  36268.997428  -2786.253916     34.170365
PC40  -6765.889847  30810.685075 -27903.588863    222.170152
PC41  -9459.034298 -26205.209667  -1471.937873   -915.471033
PC42  15367.662681  -4242.212357 -22867.624269   -937.847508
PC43  14201.594048 -23623.195855  -4296.397861   -957.555769
PC44  15971.835362   4845.432901  22354.937476    482.155390
PC45   9949.550902  16178.233885 -20453.075166    614.015230
PC46 -25645.635080   3516.776157 -10363.582503    -34.700384
PC59 -32283.813234  27104.803307   -151.832803      0.361380
PC60   7274.344477  41519.471961    886.132346     -0.405760
PE01 -18871.351007   4642.148019 -22317.365172   -527.647914
PE02  18793.555825  -4753.363771  22378.870331    263.612382
PE03  15664.405177 -16161.255174 -19240.574285   -501.219384
PE04  -5995.634188  28772.229453   3527.382578   -910.297868
PE05  16300.610356   6184.955793 -23927.194965   -230.177851
PE07  -7433.390418 -24644.070119  14617.887028   -612.366305
PE08   5606.596840 -28897.133535  -3169.747021   5896.893963
PE09   7587.218572  24450.703868 -14854.313123   5446.654154
PE11   9565.009796  13337.723602  24630.022461   4988.955367
PE12 -12404.608274  18925.256071  19091.836306   4885.212514
PE13  -8953.448025 -13549.284852 -24738.048947    424.199784
PE14  -7980.589530 -24997.345826 -19002.021604  -1657.598588
PE15  12468.304993 -18899.731761 -19057.164315    778.101755
PE18   4173.367353  19371.831620  12750.532620  -1822.616536
PE19 -16207.632711  13680.452132  20646.402501    439.979120
PE21 -25660.334019 -11258.802477  -9518.215236   -702.449057
PE24  17070.079218  21858.025520 -10395.041579  -1253.287430
PE25  25672.612198  11438.926586   9316.538557   -555.239399
PE26 -25533.767532    340.396985 -14951.291605   -513.178671
PE27 -17988.178607 -21531.064397   9417.038481   -175.955191
PE30   1514.552827 -18523.477274  23029.290064    -70.272107
PE31   -170.453988  19060.486369 -22637.322961   -488.717945
PE33 -26452.874644  13101.546629   2188.127249   -461.990632
PE36  25000.297776    269.050892  15854.729381   -297.040935
PG01  -3077.612484 -14455.830685 -22337.367043    497.244409
PG02 -18212.336127  15341.796980  12524.423436   -643.943199
PG03 -10402.026488 -21737.538434 -11387.440176    -26.836225
PG04  -1120.552204 -23746.664359  11767.692852   -200.560670
PG05  -3275.854438  16532.500648  20325.714181    -62.750473
PG06 -25967.901083   5491.916853  -1572.507780    130.165392
PG07 -19070.569739  -7969.808047  17320.808735    284.720038
PG08   6027.897672 -25667.884192   -850.085872    -46.159921
PG09 -10043.626771 -15348.144772  19124.649014   -361.210813
PG10  21287.765993   8339.251146 -13637.623169   -257.374026
PG12   7301.501063  22246.056514 -12922.285450   -133.602671
PG13 -13198.720448  22420.358435   4763.697427    222.064433
PG14 -21018.409283  -8915.441879 -13621.079500    -47.012879
PG15  -2602.430046  26213.463808  -1799.025110   -102.796969
PG16   7695.061192 -13494.588542  21221.561589   -432.469298
PG17 -14882.324848  -1132.030058 -21534.297658    540.705360
PG18  19550.631411   7077.769126  16579.463195    287.706885
PG19 -16921.898795   7659.330429 -19180.341748     85.780306
PG20 -12789.218860   9661.511509  21130.628482    517.874287
PG21   6469.426193 -16326.104262 -19058.629881    152.425145
PG22  -4107.368812 -19759.549397 -17199.775356   -452.999920
PG23  20576.025534  16499.815909  -3537.026080     27.297697
PG24   -989.234288  16625.498840 -20900.521494    271.498931
PG25  16722.074224  20555.986021  -3641.300690    248.286466
PG26  17969.008876  -2696.224640  19400.484821    160.246399
PG27  12254.316328 -21521.583978   8870.661308   -225.200625
PG28 -18355.638738  -2645.523806 -18392.778749    452.970454
PG29   5431.658301  19216.196368  17437.613846   -447.404863
PG30 -25136.968233   -879.685896   8963.068431   -495.449501
PG31  26022.066303  -6455.129338    619.896472   -152.633747
PG32  16057.352538  -3470.067060 -20717.877088    -28.431268
PJ01 -27669.236723  23450.886682  26430.862631    116.612106
PJ02 -24493.142725  16732.969870 -25390.752790     -0.222022
PJ03 -27493.248891  31990.102650   2427.862467     -7.712672
PJ07 -25366.307302  33676.718396    -48.104541     -0.031068
PR01  10163.357248  -5040.022063 -22853.326997     88.794636
PR02   1664.179700 -22286.076416 -12200.496150    501.728701
PR03  -7105.938190 -23952.213346   5024.821596     47.300147
PR04 -11507.534545 -12243.664199  19206.219194    116.569600
PR05  -9667.809901   6256.496450  22766.772928     83.340463
PR07   7325.113966  23806.740664  -5594.858439    -39.607812
PR08  11614.315106  12202.997089 -19117.369018    -62.275952
PR09  -4756.362122  10293.865457 -22833.713750     26.178824
PR11  23837.486042   8806.368107  -2144.286879 999999.999999
PR12  20400.818302   -841.017587  15331.127247    282.501259
PR13   5680.172827  -9665.583818  22897.578754    -64.166235
PR14 -13540.252704 -13243.723189  17103.825218     71.538959
PR15 -23872.883228  -8860.713577   1488.353982     99.902405
PR16 -19485.761544   2248.133254 -16247.031248    -25.893964
PR17    -91.606666 -13054.902825 -21908.799557    479.270373
PR18 -13958.750866   -691.428294 -21329.573664     98.851239
PR19 -20657.307042  10740.267693 -10403.102365   -168.852540
PR20 -15370.916425  17905.657027   9742.969796    -60.278060
PR21   1295.085952  12144.002576  22394.876878   -258.433990
PR22  14464.909503     65.688852  20976.893295   -148.327702
PR24  14436.230503 -18367.144054 -10244.456505     69.070892
EOF
